{
  "norad_id": 53169,
  "name": "STARLINK-4117",
  "history": [
    {
      "epoch": "2026-04-12T23:52:36.333408Z",
      "apogee_km": 540.8455574375485,
      "perigee_km": 538.5733215960254,
      "latitude_deg": -5.233819445206673e-05,
      "longitude_deg": 156.0359639344555,
      "height_km": 540.7038209184533,
      "semi_major_axis_km": 6917.846439516787,
      "eccentricity": 0.00016423,
      "inclination_deg": 53.2181,
      "raan_deg": 355.3794,
      "arg_perigee_deg": 94.9979,
      "mean_anomaly_deg": 265.12,
      "mean_motion_rev_day": 15.08851107
    },
    {
      "epoch": "2026-04-14T20:23:26.646144Z",
      "apogee_km": 540.6066650654539,
      "perigee_km": 538.9062468539778,
      "latitude_deg": -8.246598834286797e-06,
      "longitude_deg": -161.83056184011366,
      "height_km": 540.5603079470297,
      "semi_major_axis_km": 6917.8934559597155,
      "eccentricity": 0.0001229,
      "inclination_deg": 53.2166,
      "raan_deg": 347.0506,
      "arg_perigee_deg": 83.7906,
      "mean_anomaly_deg": 276.3226,
      "mean_motion_rev_day": 15.08835725
    },
    {
      "epoch": "2026-04-15T09:06:31.417056Z",
      "apogee_km": 540.5915769687244,
      "perigee_km": 538.8838304193705,
      "latitude_deg": 7.486443321824651e-05,
      "longitude_deg": 4.499412771893641,
      "height_km": 540.5626284513194,
      "semi_major_axis_km": 6917.874703694048,
      "eccentricity": 0.00012343,
      "inclination_deg": 53.2179,
      "raan_deg": 344.6727,
      "arg_perigee_deg": 85.23,
      "mean_anomaly_deg": 274.8834,
      "mean_motion_rev_day": 15.0884186
    },
    {
      "epoch": "2026-04-16T08:57:18.302400Z",
      "apogee_km": 540.7150769572863,
      "perigee_km": 538.7227344564435,
      "latitude_deg": -8.02096542547534e-06,
      "longitude_deg": 1.3635624094359644,
      "height_km": 540.5880919649856,
      "semi_major_axis_km": 6917.855905706865,
      "eccentricity": 0.000144,
      "inclination_deg": 53.2188,
      "raan_deg": 340.2116,
      "arg_perigee_deg": 88.472,
      "mean_anomaly_deg": 271.6437,
      "mean_motion_rev_day": 15.0884801
    },
    {
      "epoch": "2026-04-17T21:31:09.719328Z",
      "apogee_km": 540.6485241351766,
      "perigee_km": 538.7818109062919,
      "latitude_deg": -4.174172580143116e-06,
      "longitude_deg": 164.55748856946298,
      "height_km": 540.7019654689027,
      "semi_major_axis_km": 6917.852167520734,
      "eccentricity": 0.00013492,
      "inclination_deg": 53.219,
      "raan_deg": 333.3714,
      "arg_perigee_deg": 95.5886,
      "mean_anomaly_deg": 264.526,
      "mean_motion_rev_day": 15.08849233
    },
    {
      "epoch": "2026-04-18T21:21:56.588256Z",
      "apogee_km": 540.6914521029266,
      "perigee_km": 538.7558346949045,
      "latitude_deg": -1.6543205912505184e-05,
      "longitude_deg": 161.42285738825473,
      "height_km": 540.6760106202302,
      "semi_major_axis_km": 6917.860643398915,
      "eccentricity": 0.0001399,
      "inclination_deg": 53.2187,
      "raan_deg": 328.9114,
      "arg_perigee_deg": 93.3509,
      "mean_anomaly_deg": 266.7643,
      "mean_motion_rev_day": 15.0884646
    },
    {
      "epoch": "2026-04-19T21:12:44.131104Z",
      "apogee_km": 540.6361448044509,
      "perigee_km": 538.8734659724387,
      "latitude_deg": -9.040455931998859e-06,
      "longitude_deg": 158.28602406854944,
      "height_km": 540.6623540551892,
      "semi_major_axis_km": 6917.8918053884445,
      "eccentricity": 0.0001274,
      "inclination_deg": 53.2176,
      "raan_deg": 324.452,
      "arg_perigee_deg": 90.7608,
      "mean_anomaly_deg": 269.353,
      "mean_motion_rev_day": 15.08836265
    },
    {
      "epoch": "2026-04-20T00:23:30.473952Z",
      "apogee_km": 540.6782885954672,
      "perigee_km": 538.8382668095037,
      "latitude_deg": 4.1354107899800224e-05,
      "longitude_deg": 109.86788710058079,
      "height_km": 540.6773986507055,
      "semi_major_axis_km": 6917.895277702485,
      "eccentricity": 0.00013299,
      "inclination_deg": 53.2178,
      "raan_deg": 323.8575,
      "arg_perigee_deg": 91.4536,
      "mean_anomaly_deg": 268.6609,
      "mean_motion_rev_day": 15.08835129
    },
    {
      "epoch": "2026-04-21T19:18:55.265184Z",
      "apogee_km": 540.6878058301827,
      "perigee_km": 538.8213586812899,
      "latitude_deg": -5.699230984773111e-05,
      "longitude_deg": 176.22260520795723,
      "height_km": 540.642246447949,
      "semi_major_axis_km": 6917.8915822557365,
      "eccentricity": 0.0001349,
      "inclination_deg": 53.2175,
      "raan_deg": 315.8284,
      "arg_perigee_deg": 89.5042,
      "mean_anomaly_deg": 270.6104,
      "mean_motion_rev_day": 15.08836338
    },
    {
      "epoch": "2026-04-22T17:34:19.411104Z",
      "apogee_km": 540.6024653485274,
      "perigee_km": 538.8965145401071,
      "latitude_deg": -5.5096271993485585e-05,
      "longitude_deg": -162.7069541590244,
      "height_km": 540.5600768610068,
      "semi_major_axis_km": 6917.886489944317,
      "eccentricity": 0.0001233,
      "inclination_deg": 53.2167,
      "raan_deg": 311.6635,
      "arg_perigee_deg": 84.2649,
      "mean_anomaly_deg": 275.8483,
      "mean_motion_rev_day": 15.08838004
    },
    {
      "epoch": "2026-04-22T22:20:28.781952Z",
      "apogee_km": 540.6087745672094,
      "perigee_km": 538.8848379226929,
      "latitude_deg": 5.301244945269742e-05,
      "longitude_deg": 124.66631359534975,
      "height_km": 540.567593679785,
      "semi_major_axis_km": 6917.883806244951,
      "eccentricity": 0.0001246,
      "inclination_deg": 53.2167,
      "raan_deg": 310.7716,
      "arg_perigee_deg": 85.0083,
      "mean_anomaly_deg": 275.1052,
      "mean_motion_rev_day": 15.08838882
    },
    {
      "epoch": "2026-04-24T18:51:16.665984Z",
      "apogee_km": 540.7109954256985,
      "perigee_km": 538.7850562345075,
      "latitude_deg": 2.850469812561788e-05,
      "longitude_deg": 166.814179600634,
      "height_km": 540.6444677827895,
      "semi_major_axis_km": 6917.885025830103,
      "eccentricity": 0.0001392,
      "inclination_deg": 53.2177,
      "raan_deg": 302.4471,
      "arg_perigee_deg": 90.0448,
      "mean_anomaly_deg": 270.0704,
      "mean_motion_rev_day": 15.08838483
    },
    {
      "epoch": "2026-04-25T18:42:03.063168Z",
      "apogee_km": 540.667962973097,
      "perigee_km": 538.7918374697574,
      "latitude_deg": -3.997927572542032e-05,
      "longitude_deg": 163.68067732761114,
      "height_km": 540.6111896070806,
      "semi_major_axis_km": 6917.866900221427,
      "eccentricity": 0.0001356,
      "inclination_deg": 53.2173,
      "raan_deg": 297.9863,
      "arg_perigee_deg": 89.1192,
      "mean_anomaly_deg": 270.9955,
      "mean_motion_rev_day": 15.08844413
    },
    {
      "epoch": "2026-04-26T18:32:50.720064Z",
      "apogee_km": 540.6989120135868,
      "perigee_km": 538.8014739143,
      "latitude_deg": 6.141596483594731e-05,
      "longitude_deg": 160.5416388477175,
      "height_km": 540.6690315864366,
      "semi_major_axis_km": 6917.887192963943,
      "eccentricity": 0.00013714,
      "inclination_deg": 53.2172,
      "raan_deg": 293.5251,
      "arg_perigee_deg": 91.4,
      "mean_anomaly_deg": 268.715,
      "mean_motion_rev_day": 15.08837774
    },
    {
      "epoch": "2026-04-27T18:23:37.803264Z",
      "apogee_km": 540.6615733026156,
      "perigee_km": 538.8283345848204,
      "latitude_deg": 2.6874714704643047e-06,
      "longitude_deg": 157.4059785959093,
      "height_km": 540.6514994179013,
      "semi_major_axis_km": 6917.881953943717,
      "eccentricity": 0.0001325,
      "inclination_deg": 53.2181,
      "raan_deg": 289.065,
      "arg_perigee_deg": 90.6699,
      "mean_anomaly_deg": 269.4445,
      "mean_motion_rev_day": 15.08839488
    },
    {
      "epoch": "2026-04-28T19:49:48.489888Z",
      "apogee_km": 540.6400566356488,
      "perigee_km": 538.8884440390639,
      "latitude_deg": -1.5998186537313057e-05,
      "longitude_deg": 130.05910608321415,
      "height_km": 540.6701145794306,
      "semi_major_axis_km": 6917.901250337356,
      "eccentricity": 0.0001266,
      "inclination_deg": 53.2177,
      "raan_deg": 284.3073,
      "arg_perigee_deg": 90.654,
      "mean_anomaly_deg": 269.4597,
      "mean_motion_rev_day": 15.08833175
    }
  ]
}